[{"OBJECT_NAME":"STARLINK-2701","OBJECT_ID":"2021-044U","EPOCH":"2026-03-09T09:59:31.641216","MEAN_MOTION":15.30223298,"ECCENTRICITY":0.00015126,"INCLINATION":53.159,"RA_OF_ASC_NODE":115.1314,"ARG_OF_PERICENTER":109.2317,"MEAN_ANOMALY":250.8847,"EPHEMERIS_TYPE":0,"CLASSIFICATION_TYPE":"U","NORAD_CAT_ID":48656,"ELEMENT_SET_NO":999,"REV_AT_EPOCH":26378,"BSTAR":0.00040421747,"MEAN_MOTION_DOT":0.0001164,"MEAN_MOTION_DDOT":0},{"OBJECT_NAME":"CERISE","OBJECT_ID":"1995-033B","EPOCH":"2026-03-09T23:11:27.589056","MEAN_MOTION":15.32047731,"ECCENTRICITY":0.00057118,"INCLINATION":98.325,"RA_OF_ASC_NODE":273.5192,"ARG_OF_PERICENTER":211.8754,"MEAN_ANOMALY":148.214,"EPHEMERIS_TYPE":0,"CLASSIFICATION_TYPE":"U","NORAD_CAT_ID":23606,"ELEMENT_SET_NO":999,"REV_AT_EPOCH":66468,"BSTAR":0.00062940675,"MEAN_MOTION_DOT":0.00019422,"MEAN_MOTION_DDOT":0}]
